LEMUR-1                 
1 40044U 14033AL  26200.15873222  .00000697  00000+0  85930-4 0  9993
2 40044  97.7914 349.2620 0047409 334.7797  25.1103 14.85343146650216
LEMUR-2-GREENBERG       
1 42837U 17042N   26199.96541870  .00009442  00000+0  30569-3 0  9999
2 42837  97.3838  20.4677 0007399 243.6976 116.3506 15.32225124493257
LEMUR-2-ANDIS           
1 42838U 17042P   26199.98410130  .00012908  00000+0  36983-3 0  9993
2 42838  97.3690  20.7854 0007382 242.5836 117.4657 15.36020423493336
LEMUR-2-MONSON          
1 42839U 17042Q   26200.04392300  .00008196  00000+0  29524-3 0  9999
2 42839  97.4100  20.4679 0005554 228.8688 131.2073 15.28814251493031
LEMUR-2-FURIAUS         
1 42840U 17042R   26200.30760559  .00009207  00000+0  30778-3 0  9992
2 42840  97.3788  18.6914 0005707 311.7105  48.3647 15.31210125493120
LEMUR-2-PETERG          
1 42841U 17042S   26200.24793091  .00010666  00000+0  31516-3 0  9995
2 42841  97.4001  25.3614 0003615 203.0098 157.0984 15.35119284493357
LEMUR-2-DEMBITZ         
1 42842U 17042T   26200.00065835  .00008857  00000+0  29649-3 0  9991
2 42842  97.3837  21.4327 0005127 256.6809 103.3861 15.31179515493218
LEMUR-2-ZACHARY         
1 42845U 17042W   26200.24087024  .00029465  00000+0  47359-3 0  9990
2 42845  97.3580  32.6222 0002816 225.9770 134.1251 15.52965979494173
LEMUR-2-AMANDA-SVANTE   
1 48269U 21034B   26200.16401883  .00018266  00000+0  52088-3 0  9998
2 48269  97.5741 279.3353 0004800 134.5168 225.6469 15.36109547285961
LEMUR-2-SPECIAL-K       
1 48273U 21034F   26200.20797859  .00177710  00000+0  11188-2 0  9994
2 48273  97.5626 289.6600 0006334 211.0014 149.0878 15.76151622286714
LEMUR-2-EMBRIONOVIS     
1 56970U 23084AQ  26199.95291331  .00007833  00000+0  20967-3 0  9991
2 56970  97.6332 345.3962 0008649 192.3713 167.7320 15.38290239172563
LEMUR-2-DEVERILL-M-T    
1 57391U 23100F   26200.06150188  .00015090  00000+0  36593-3 0  9993
2 57391  99.4445 248.0651 0004757 280.7582  79.3122 15.41208729166155
LEMUR-2-BASS            
1 58259U 23174D   26200.23383047  .00009599  00000+0  21181-3 0  9993
2 58259  97.3838 285.4163 0007390  66.0870 294.1152 15.44075934150309
LEMUR-2-JK0903EM1407    
1 58336U 23174CJ  26200.24234341  .00015892  00000+0  25442-3 0  9999
2 58336  97.3917 291.6526 0003202  16.8927 343.2432 15.53202178150702
LEMUR-2-MJR092620       
1 58340U 23174CN  26200.27385902  .00010654  00000+0  22052-3 0  9992
2 58340  97.3969 290.9195 0004907  15.5389 344.6010 15.45953289150602
LEMUR-2-NIMBUS2000      
1 58899U 24022A   26200.16419418  .00011736  00000+0  28424-3 0  9993
2 58899  97.4080  50.5905 0008336  14.9087 345.2404 15.41217426137198
LEMUR-2-VALHALLA        
1 58900U 24022B   26200.10575295  .00008353  00000+0  20741-3 0  9991
2 58900  97.4078  50.4973 0008812  10.6002 349.5428 15.40559226137189
LEMUR-2-CAEL            
1 58903U 24022E   26200.08788364  .00009414  00000+0  22324-3 0  9992
2 58903  97.4062  51.4728 0006687 355.0880   5.0300 15.41933743137254
LEMUR-2-JOHNNYTRUONG    
1 59146U 24043BA  26199.99599157  .00025016  00000+0  27933-3 0  9999
2 59146  97.5405 353.7311 0003867  83.5411 276.6287 15.62765873133001
LEMUR-2-TOMATOKECHUP    
1 60471U 24149D   26200.21710426  .00005714  00000+0  16205-3 0  9994
2 60471  97.3787 282.3582 0003415 114.6997 245.4603 15.36630911107086
LEMUR-2-STELLA          
1 60533U 24149BT  26200.17578947  .00005982  00000+0  34821-3 0  9999
2 60533  97.6731 282.7841 0001233 123.0801 237.0548 15.12417635105334
LEMUR-2-MARHISYAM       
1 60536U 24149BW  26200.16826405  .00005045  00000+0  29918-3 0  9997
2 60536  97.6874 283.2570 0002270  63.8052 296.3411 15.11820700105316
LEMUR-2-AHMED-ASRAR     
1 60576U 24149DN  26200.17075253  .00005823  00000+0  33036-3 0  9999
2 60576  97.7001 285.4784 0001562 187.1525 172.9683 15.13356542105402
LEMUR-2-LLOYD           
1 60577U 24149DP  26200.19151835  .00004674  00000+0  29330-3 0  9998
2 60577  97.6732 281.3490 0004329  61.6391 298.5274 15.09788807105222
LEMUR-2-SQUIRRELCOMM    
1 60578U 24149DQ  26200.18625791  .00002892  00000+0  19490-3 0  9991
2 60578  97.6699 281.0022 0004014 307.5122  52.5740 15.07467173105222
LEMUR-2-SIERRINI        
1 60579U 24149DR  26200.19784575  .00005171  00000+0  30866-3 0  9992
2 60579  97.6829 282.9443 0006197  80.6962 279.4968 15.11556798105296
LEMUR-2-WILSON          
1 62694U 25009CP  26200.21696335  .00001071  00000+0  10238-3 0  9993
2 62694  97.7016 278.1201 0001703 300.8351  59.2702 14.95284101 82146
LEMUR-2-STAR-FOX        
1 62696U 25009CR  26200.18833329  .00003706  00000+0  28089-3 0  9997
2 62696  97.6897 281.5669 0001765  26.7663 333.3653 15.02869858 82360
LEMUR-2-ARIANNA         
1 62699U 25009CU  26200.18679380  .00003837  00000+0  29064-3 0  9994
2 62699  97.6840 281.3147 0002074  35.4388 324.6975 15.02872906 82363
LEMUR-2-ALISIA          
1 62706U 25009DB  26200.22484312  .00003748  00000+0  28148-3 0  9990
2 62706  97.6962 282.1855 0004768 118.1003 242.0704 15.03207871104976
